*******************************************************************************
Ephemeris / WWW_USER Tue Feb 19 21:45:27 2019 Pasadena, USA      / Horizons    
*******************************************************************************
Target body name: Juno (spacecraft) (-61)         {source: juno_merged_DE436}
Center body name: Earth (399)                     {source: juno_merged_DE436}
Center-site name: Green Bank (GBT)
*******************************************************************************
Start time      : A.D. 2019-Feb-20 19:15:00.0000 UT      
Stop  time      : A.D. 2019-Feb-21 07:15:00.0000 UT      
Step-size       : 1 minutes
*******************************************************************************
Target pole/equ : No model available
Target radii    : (unavailable)                                                
Center geodetic : 280.160200,38.4330940,0.8760930 {E-lon(deg),Lat(deg),Alt(km)}
Center cylindric: 280.160200,5003.37558,3943.7589 {E-lon(deg),Dxy(km),Dz(km)}
Center pole/equ : High-precision EOP model        {East-longitude positive}
Center radii    : 6378.1 x 6378.1 x 6356.8 km     {Equator, meridian, pole}    
Target primary  : Earth
Vis. interferer : MOON (R_eq= 1737.400) km        {source: juno_merged_DE436}
Rel. light bend : Sun, EARTH                      {source: juno_merged_DE436}
Rel. lght bnd GM: 1.3271E+11, 3.9860E+05 km^3/s^2                              
Atmos refraction: NO (AIRLESS)
RA format       : HMS
Time format     : CAL 
RTS-only print  : NO       
EOP file        : eop.190218.p190512                                           
EOP coverage    : DATA-BASED 1962-JAN-20 TO 2019-FEB-18. PREDICTS-> 2019-MAY-11
Units conversion: 1 au= 149597870.700 km, c= 299792.458 km/s, 1 day= 86400.0 s 
Table cut-offs 1: Elevation (-90.0deg=NO ),Airmass (>38.000=NO), Daylight (NO )
Table cut-offs 2: Solar elongation (  0.0,180.0=NO ),Local Hour Angle( 0.0=NO )
Table cut-offs 3: RA/DEC angular rate (     0.0=NO )                           
*******************************************************************************************************************
 Date__(UT)__HR:MN     R.A._(ICRF/J2000.0)_DEC dRA*cosD d(DEC)/dt            delta      deldot    S-O-T /r    S-T-O
*******************************************************************************************************************
$$SOE
 2019-Feb-20 21:25 *   17 19 31.53 -22 39 57.0 20.96667  -2.45875 5.60242047967851 -22.6108995  71.0139 /L  10.0412
 2019-Feb-20 21:26 *   17 19 31.55 -22 39 57.1 20.96745  -2.45896 5.60241141091228 -22.6121987  71.0145 /L  10.0412
 2019-Feb-20 21:27 *   17 19 31.58 -22 39 57.1 20.96822  -2.45918 5.60240234162404 -22.6135027  71.0151 /L  10.0413
 2019-Feb-20 21:28 *   17 19 31.60 -22 39 57.2 20.96899  -2.45940 5.60239327181188 -22.6148113  71.0157 /L  10.0413
 2019-Feb-20 21:29 *   17 19 31.63 -22 39 57.2 20.96976  -2.45963 5.60238420147389 -22.6161247  71.0163 /L  10.0413
 2019-Feb-20 21:30 *   17 19 31.66 -22 39 57.3 20.97052  -2.45985 5.60237513060818 -22.6174429  71.0169 /L  10.0414
 2019-Feb-20 21:31 *   17 19 31.68 -22 39 57.3 20.97128  -2.46008 5.60236605921288 -22.6187657  71.0175 /L  10.0414
 2019-Feb-20 21:32 *   17 19 31.71 -22 39 57.3 20.97203  -2.46031 5.60235698728610 -22.6200931  71.0181 /L  10.0415
 2019-Feb-20 21:33 *   17 19 31.73 -22 39 57.4 20.97278  -2.46054 5.60234791482598 -22.6214252  71.0187 /L  10.0415
 2019-Feb-20 21:34 *   17 19 31.76 -22 39 57.4 20.97352  -2.46077 5.60233884183066 -22.6227620  71.0193 /L  10.0415
 2019-Feb-20 21:35 *   17 19 31.78 -22 39 57.5 20.97426  -2.46100 5.60232976829827 -22.6241033  71.0199 /L  10.0416
 2019-Feb-20 21:36 *   17 19 31.81 -22 39 57.5 20.97500  -2.46124 5.60232069422700 -22.6254492  71.0205 /L  10.0416
 2019-Feb-20 21:37 *   17 19 31.83 -22 39 57.5 20.97573  -2.46147 5.60231161961500 -22.6267997  71.0211 /L  10.0416
 2019-Feb-20 21:38 *   17 19 31.86 -22 39 57.6 20.97645  -2.46171 5.60230254446044 -22.6281548  71.0217 /L  10.0417
 2019-Feb-20 21:39 *   17 19 31.88 -22 39 57.6 20.97718  -2.46195 5.60229346876149 -22.6295143  71.0223 /L  10.0417
 2019-Feb-20 21:40 *   17 19 31.91 -22 39 57.7 20.97790  -2.46219 5.60228439251636 -22.6308784  71.0229 /L  10.0418
 2019-Feb-20 21:41 *   17 19 31.93 -22 39 57.7 20.97861  -2.46244 5.60227531572323 -22.6322470  71.0235 /L  10.0418
 2019-Feb-20 21:42 *   17 19 31.96 -22 39 57.8 20.97932  -2.46268 5.60226623838030 -22.6336200  71.0241 /L  10.0418
 2019-Feb-20 21:43 *   17 19 31.98 -22 39 57.8 20.98002  -2.46293 5.60225716048579 -22.6349975  71.0247 /L  10.0419
 2019-Feb-20 21:44 *   17 19 32.01 -22 39 57.8 20.98072  -2.46318 5.60224808203791 -22.6363794  71.0253 /L  10.0419
 2019-Feb-20 21:45 *   17 19 32.03 -22 39 57.9 20.98142  -2.46343 5.60223900303491 -22.6377658  71.0259 /L  10.0419
 2019-Feb-20 21:46 *   17 19 32.06 -22 39 57.9 20.98211  -2.46368 5.60222992347501 -22.6391565  71.0265 /L  10.0420
 2019-Feb-20 21:47 *   17 19 32.08 -22 39 58.0 20.98280  -2.46394 5.60222084335646 -22.6405515  71.0271 /L  10.0420
 2019-Feb-20 21:48 *   17 19 32.11 -22 39 58.0 20.98348  -2.46419 5.60221176267751 -22.6419510  71.0277 /L  10.0420
 2019-Feb-20 21:49 *   17 19 32.14 -22 39 58.0 20.98416  -2.46445 5.60220268143643 -22.6433547  71.0283 /L  10.0421
 2019-Feb-20 21:50 *   17 19 32.16 -22 39 58.1 20.98483  -2.46471 5.60219359963148 -22.6447628  71.0289 /L  10.0421
 2019-Feb-20 21:51 *   17 19 32.19 -22 39 58.1 20.98550  -2.46497 5.60218451726093 -22.6461751  71.0295 /L  10.0422
 2019-Feb-20 21:52 *   17 19 32.21 -22 39 58.2 20.98616  -2.46523 5.60217543432309 -22.6475917  71.0301 /L  10.0422
 2019-Feb-20 21:53 *   17 19 32.24 -22 39 58.2 20.98682  -2.46549 5.60216635081621 -22.6490125  71.0307 /L  10.0422
 2019-Feb-20 21:54 *   17 19 32.26 -22 39 58.3 20.98748  -2.46576 5.60215726673866 -22.6504376  71.0312 /L  10.0423
 2019-Feb-20 21:55 *   17 19 32.29 -22 39 58.3 20.98813  -2.46602 5.60214818208870 -22.6518668  71.0318 /L  10.0423
 2019-Feb-20 21:56 *   17 19 32.31 -22 39 58.3 20.98877  -2.46629 5.60213909686467 -22.6533003  71.0324 /L  10.0423
 2019-Feb-20 21:57 *   17 19 32.34 -22 39 58.4 20.98942  -2.46656 5.60213001106490 -22.6547379  71.0330 /L  10.0424
 2019-Feb-20 21:58 *   17 19 32.36 -22 39 58.4 20.99005  -2.46683 5.60212092468772 -22.6561796  71.0336 /L  10.0424
 2019-Feb-20 21:59 *   17 19 32.39 -22 39 58.5 20.99068  -2.46710 5.60211183773148 -22.6576254  71.0342 /L  10.0425
 2019-Feb-20 22:00 *   17 19 32.41 -22 39 58.5 20.99131  -2.46738 5.60210275019452 -22.6590754  71.0348 /L  10.0425
 2019-Feb-20 22:01 *   17 19 32.44 -22 39 58.5 20.99193  -2.46765 5.60209366207523 -22.6605294  71.0354 /L  10.0425
 2019-Feb-20 22:02 *   17 19 32.46 -22 39 58.6 20.99255  -2.46793 5.60208457337195 -22.6619874  71.0360 /L  10.0426
 2019-Feb-20 22:03 *   17 19 32.49 -22 39 58.6 20.99316  -2.46821 5.60207548408309 -22.6634495  71.0366 /L  10.0426
 2019-Feb-20 22:04 *   17 19 32.51 -22 39 58.7 20.99377  -2.46849 5.60206639420703 -22.6649156  71.0372 /L  10.0426
 2019-Feb-20 22:05 *   17 19 32.54 -22 39 58.7 20.99437  -2.46877 5.60205730374216 -22.6663856  71.0378 /L  10.0427
 2019-Feb-20 22:06 *   17 19 32.56 -22 39 58.8 20.99497  -2.46906 5.60204821268691 -22.6678597  71.0384 /L  10.0427
 2019-Feb-20 22:07 *   17 19 32.59 -22 39 58.8 20.99556  -2.46934 5.60203912103967 -22.6693376  71.0390 /L  10.0427
 2019-Feb-20 22:08 *   17 19 32.62 -22 39 58.8 20.99615  -2.46963 5.60203002879888 -22.6708195  71.0396 /L  10.0428
 2019-Feb-20 22:09 *   17 19 32.64 -22 39 58.9 20.99673  -2.46991 5.60202093596296 -22.6723053  71.0402 /L  10.0428
 2019-Feb-20 22:10 *   17 19 32.67 -22 39 58.9 20.99731  -2.47020 5.60201184253037 -22.6737949  71.0408 /L  10.0429
 2019-Feb-20 22:11 *   17 19 32.69 -22 39 59.0 20.99788  -2.47049 5.60200274849953 -22.6752884  71.0414 /L  10.0429
 2019-Feb-20 22:12 *   17 19 32.72 -22 39 59.0 20.99845  -2.47079 5.60199365386895 -22.6767857  71.0420 /L  10.0429
 2019-Feb-20 22:13 *   17 19 32.74 -22 39 59.0 20.99902  -2.47108 5.60198455863707 -22.6782868  71.0426 /L  10.0430
 2019-Feb-20 22:14 *   17 19 32.77 -22 39 59.1 20.99957  -2.47137 5.60197546280237 -22.6797917  71.0432 /L  10.0430
 2019-Feb-20 22:15 *   17 19 32.79 -22 39 59.1 21.00013  -2.47167 5.60196636636335 -22.6813004  71.0438 /L  10.0430
 2019-Feb-20 22:16 *   17 19 32.82 -22 39 59.2 21.00068  -2.47197 5.60195726931849 -22.6828128  71.0444 /L  10.0431
 2019-Feb-20 22:17 *   17 19 32.84 -22 39 59.2 21.00122  -2.47227 5.60194817166631 -22.6843289  71.0450 /L  10.0431
 2019-Feb-20 22:18 *   17 19 32.87 -22 39 59.3 21.00176  -2.47257 5.60193907340532 -22.6858487  71.0456 /L  10.0432
 2019-Feb-20 22:19 *   17 19 32.89 -22 39 59.3 21.00229  -2.47287 5.60192997453404 -22.6873722  71.0462 /L  10.0432
 2019-Feb-20 22:20 *   17 19 32.92 -22 39 59.3 21.00282  -2.47317 5.60192087505100 -22.6888993  71.0468 /L  10.0432
 2019-Feb-20 22:21 *   17 19 32.94 -22 39 59.4 21.00334  -2.47348 5.60191177495476 -22.6904300  71.0474 /L  10.0433
 2019-Feb-20 22:22 *   17 19 32.97 -22 39 59.4 21.00386  -2.47378 5.60190267424388 -22.6919643  71.0480 /L  10.0433
 2019-Feb-20 22:23 *   17 19 32.99 -22 39 59.5 21.00437  -2.47409 5.60189357291689 -22.6935022  71.0486 /L  10.0433
 2019-Feb-20 22:24 *   17 19 33.02 -22 39 59.5 21.00488  -2.47440 5.60188447097239 -22.6950437  71.0492 /L  10.0434
 2019-Feb-20 22:25 *   17 19 33.05 -22 39 59.5 21.00538  -2.47471 5.60187536840895 -22.6965886  71.0498 /L  10.0434
 2019-Feb-20 22:26 *   17 19 33.07 -22 39 59.6 21.00588  -2.47502 5.60186626522515 -22.6981371  71.0504 /L  10.0434
 2019-Feb-20 22:27 *   17 19 33.10 -22 39 59.6 21.00637  -2.47533 5.60185716141961 -22.6996891  71.0510 /L  10.0435
 2019-Feb-20 22:28 *   17 19 33.12 -22 39 59.7 21.00686  -2.47565 5.60184805699093 -22.7012445  71.0516 /L  10.0435
 2019-Feb-20 22:29 *   17 19 33.15 -22 39 59.7 21.00734  -2.47596 5.60183895193770 -22.7028033  71.0522 /L  10.0436
